[{"OBJECT_NAME":"STARLINK-4288","OBJECT_ID":"2022-076V","EPOCH":"2025-10-01T18:00:01.442016","MEAN_MOTION":15.08836555,"ECCENTRICITY":0.0001344,"INCLINATION":53.2159,"RA_OF_ASC_NODE":87.6292,"ARG_OF_PERICENTER":90.084,"MEAN_ANOMALY":270.0306,"EPHEMERIS_TYPE":0,"CLASSIFICATION_TYPE":"U","NORAD_CAT_ID":53005,"ELEMENT_SET_NO":999,"REV_AT_EPOCH":17885,"BSTAR":-1.3067e-5,"MEAN_MOTION_DOT":-4.96e-6,"MEAN_MOTION_DDOT":0},{"OBJECT_NAME":"STARLINK-4290","OBJECT_ID":"2022-076W","EPOCH":"2025-10-01T21:21:23.340672","MEAN_MOTION":15.08843268,"ECCENTRICITY":0.0001409,"INCLINATION":53.2152,"RA_OF_ASC_NODE":86.9989,"ARG_OF_PERICENTER":99.0331,"MEAN_ANOMALY":261.082,"EPHEMERIS_TYPE":0,"CLASSIFICATION_TYPE":"U","NORAD_CAT_ID":53006,"ELEMENT_SET_NO":999,"REV_AT_EPOCH":17887,"BSTAR":0.00011321,"MEAN_MOTION_DOT":1.514e-5,"MEAN_MOTION_DDOT":0},{"OBJECT_NAME":"STARLINK-4215","OBJECT_ID":"2022-076X","EPOCH":"2025-10-01T19:24:48.990240","MEAN_MOTION":15.08837422,"ECCENTRICITY":0.00013301,"INCLINATION":53.2164,"RA_OF_ASC_NODE":87.3634,"ARG_OF_PERICENTER":93.1393,"MEAN_ANOMALY":266.9752,"EPHEMERIS_TYPE":0,"CLASSIFICATION_TYPE":"U","NORAD_CAT_ID":53007,"ELEMENT_SET_NO":999,"REV_AT_EPOCH":17886,"BSTAR":6.0974391e-5,"MEAN_MOTION_DOT":6.83e-6,"MEAN_MOTION_DDOT":0},{"OBJECT_NAME":"STARLINK-4275","OBJECT_ID":"2022-076Y","EPOCH":"2025-10-02T03:27:01.302048","MEAN_MOTION":15.08835963,"ECCENTRICITY":0.0001258,"INCLINATION":53.2151,"RA_OF_ASC_NODE":85.8528,"ARG_OF_PERICENTER":61.5165,"MEAN_ANOMALY":298.5954,"EPHEMERIS_TYPE":0,"CLASSIFICATION_TYPE":"U","NORAD_CAT_ID":53008,"ELEMENT_SET_NO":999,"REV_AT_EPOCH":17891,"BSTAR":-3.4593e-5,"MEAN_MOTION_DOT":-8.38e-6,"MEAN_MOTION_DDOT":0},{"OBJECT_NAME":"STARLINK-4277","OBJECT_ID":"2022-076Z","EPOCH":"2025-09-30T20:49:31.508256","MEAN_MOTION":15.08853859,"ECCENTRICITY":0.00012804,"INCLINATION":53.2167,"RA_OF_ASC_NODE":81.5892,"ARG_OF_PERICENTER":91.4485,"MEAN_ANOMALY":268.6653,"EPHEMERIS_TYPE":0,"CLASSIFICATION_TYPE":"U","NORAD_CAT_ID":53009,"ELEMENT_SET_NO":999,"REV_AT_EPOCH":17885,"BSTAR":4.3414914e-5,"MEAN_MOTION_DOT":4.03e-6,"MEAN_MOTION_DDOT":0},{"OBJECT_NAME":"STARLINK-4263","OBJECT_ID":"2022-076AA","EPOCH":"2025-10-02T04:25:17.909184","MEAN_MOTION":15.08829437,"ECCENTRICITY":0.0001557,"INCLINATION":53.2171,"RA_OF_ASC_NODE":85.4091,"ARG_OF_PERICENTER":86.7265,"MEAN_ANOMALY":273.3905,"EPHEMERIS_TYPE":0,"CLASSIFICATION_TYPE":"U","NORAD_CAT_ID":53010,"ELEMENT_SET_NO":999,"REV_AT_EPOCH":17892,"BSTAR":-5.1685e-5,"MEAN_MOTION_DOT":-1.11e-5,"MEAN_MOTION_DDOT":0},{"OBJECT_NAME":"STARLINK-4265","OBJECT_ID":"2022-076AB","EPOCH":"2025-10-01T17:24:15.893280","MEAN_MOTION":15.08843554,"ECCENTRICITY":0.0001528,"INCLINATION":53.2178,"RA_OF_ASC_NODE":77.7407,"ARG_OF_PERICENTER":97.8458,"MEAN_ANOMALY":262.2708,"EPHEMERIS_TYPE":0,"CLASSIFICATION_TYPE":"U","NORAD_CAT_ID":53011,"ELEMENT_SET_NO":999,"REV_AT_EPOCH":17898,"BSTAR":0.00025416,"MEAN_MOTION_DOT":3.76e-5,"MEAN_MOTION_DDOT":0},{"OBJECT_NAME":"STARLINK-4271","OBJECT_ID":"2022-076AC","EPOCH":"2025-10-01T19:19:31.313856","MEAN_MOTION":15.0883742,"ECCENTRICITY":0.00018107,"INCLINATION":53.2152,"RA_OF_ASC_NODE":87.3784,"ARG_OF_PERICENTER":89.99,"MEAN_ANOMALY":270.13,"EPHEMERIS_TYPE":0,"CLASSIFICATION_TYPE":"U","NORAD_CAT_ID":53012,"ELEMENT_SET_NO":999,"REV_AT_EPOCH":17886,"BSTAR":-5.7353684e-5,"MEAN_MOTION_DOT":-1.201e-5,"MEAN_MOTION_DDOT":0},{"OBJECT_NAME":"STARLINK-4177","OBJECT_ID":"2022-076AD","EPOCH":"2025-10-01T17:13:39.247968","MEAN_MOTION":15.08845825,"ECCENTRICITY":0.0001346,"INCLINATION":53.2165,"RA_OF_ASC_NODE":77.7745,"ARG_OF_PERICENTER":84.8246,"MEAN_ANOMALY":275.29,"EPHEMERIS_TYPE":0,"CLASSIFICATION_TYPE":"U","NORAD_CAT_ID":53013,"ELEMENT_SET_NO":999,"REV_AT_EPOCH":17898,"BSTAR":-6.0462e-6,"MEAN_MOTION_DOT":-3.84e-6,"MEAN_MOTION_DDOT":0},{"OBJECT_NAME":"STARLINK-4183","OBJECT_ID":"2022-076AE","EPOCH":"2025-10-01T14:24:05.095008","MEAN_MOTION":15.08834837,"ECCENTRICITY":0.00015034,"INCLINATION":53.218,"RA_OF_ASC_NODE":78.2998,"ARG_OF_PERICENTER":106.761,"MEAN_ANOMALY":253.3547,"EPHEMERIS_TYPE":0,"CLASSIFICATION_TYPE":"U","NORAD_CAT_ID":53014,"ELEMENT_SET_NO":999,"REV_AT_EPOCH":17896,"BSTAR":2.9172337e-5,"MEAN_MOTION_DOT":1.76e-6,"MEAN_MOTION_DDOT":0},{"OBJECT_NAME":"STARLINK-4262","OBJECT_ID":"2022-076AF","EPOCH":"2025-10-02T04:10:46.253280","MEAN_MOTION":15.0882495,"ECCENTRICITY":0.0001385,"INCLINATION":53.2171,"RA_OF_ASC_NODE":75.7238,"ARG_OF_PERICENTER":97.2781,"MEAN_ANOMALY":262.8369,"EPHEMERIS_TYPE":0,"CLASSIFICATION_TYPE":"U","NORAD_CAT_ID":53015,"ELEMENT_SET_NO":999,"REV_AT_EPOCH":17905,"BSTAR":0.00010614,"MEAN_MOTION_DOT":1.401e-5,"MEAN_MOTION_DDOT":0},{"OBJECT_NAME":"STARLINK-4283","OBJECT_ID":"2022-076AG","EPOCH":"2025-10-01T17:18:58.025952","MEAN_MOTION":15.08840069,"ECCENTRICITY":7.913e-5,"INCLINATION":53.2183,"RA_OF_ASC_NODE":77.7595,"ARG_OF_PERICENTER":87.4591,"MEAN_ANOMALY":272.6492,"EPHEMERIS_TYPE":0,"CLASSIFICATION_TYPE":"U","NORAD_CAT_ID":53016,"ELEMENT_SET_NO":999,"REV_AT_EPOCH":17898,"BSTAR":1.725569e-5,"MEAN_MOTION_DOT":-1.3e-7,"MEAN_MOTION_DDOT":0},{"OBJECT_NAME":"STARLINK-4281","OBJECT_ID":"2022-076AH","EPOCH":"2025-10-02T04:05:28.190688","MEAN_MOTION":15.08844391,"ECCENTRICITY":0.0001186,"INCLINATION":53.2171,"RA_OF_ASC_NODE":75.7391,"ARG_OF_PERICENTER":98.0474,"MEAN_ANOMALY":262.0653,"EPHEMERIS_TYPE":0,"CLASSIFICATION_TYPE":"U","NORAD_CAT_ID":53017,"ELEMENT_SET_NO":999,"REV_AT_EPOCH":17906,"BSTAR":0.00016681,"MEAN_MOTION_DOT":2.368e-5,"MEAN_MOTION_DDOT":0},{"OBJECT_NAME":"STARLINK-4279","OBJECT_ID":"2022-076AJ","EPOCH":"2025-10-02T03:23:06.701856","MEAN_MOTION":15.08837711,"ECCENTRICITY":0.0001188,"INCLINATION":53.2154,"RA_OF_ASC_NODE":76.1305,"ARG_OF_PERICENTER":85.5423,"MEAN_ANOMALY":274.5704,"EPHEMERIS_TYPE":0,"CLASSIFICATION_TYPE":"U","NORAD_CAT_ID":53018,"ELEMENT_SET_NO":999,"REV_AT_EPOCH":17904,"BSTAR":4.8394e-5,"MEAN_MOTION_DOT":4.82e-6,"MEAN_MOTION_DDOT":0},{"OBJECT_NAME":"STARLINK-4282","OBJECT_ID":"2022-076AK","EPOCH":"2025-10-02T03:54:51.962688","MEAN_MOTION":15.08819797,"ECCENTRICITY":0.0001573,"INCLINATION":53.217,"RA_OF_ASC_NODE":75.774,"ARG_OF_PERICENTER":140.4738,"MEAN_ANOMALY":219.6369,"EPHEMERIS_TYPE":0,"CLASSIFICATION_TYPE":"U","NORAD_CAT_ID":53019,"ELEMENT_SET_NO":999,"REV_AT_EPOCH":17905,"BSTAR":0.00018836,"MEAN_MOTION_DOT":2.709e-5,"MEAN_MOTION_DDOT":0},{"OBJECT_NAME":"STARLINK-4287","OBJECT_ID":"2022-076AL","EPOCH":"2025-10-02T04:16:03.154656","MEAN_MOTION":15.08840801,"ECCENTRICITY":0.0001334,"INCLINATION":53.2173,"RA_OF_ASC_NODE":75.7081,"ARG_OF_PERICENTER":89.9309,"MEAN_ANOMALY":270.1836,"EPHEMERIS_TYPE":0,"CLASSIFICATION_TYPE":"U","NORAD_CAT_ID":53020,"ELEMENT_SET_NO":999,"REV_AT_EPOCH":17905,"BSTAR":4.9393e-5,"MEAN_MOTION_DOT":4.98e-6,"MEAN_MOTION_DDOT":0},{"OBJECT_NAME":"STARLINK-4216","OBJECT_ID":"2022-076AN","EPOCH":"2025-10-02T04:00:09.186336","MEAN_MOTION":15.08854031,"ECCENTRICITY":0.0001437,"INCLINATION":53.2173,"RA_OF_ASC_NODE":75.7564,"ARG_OF_PERICENTER":87.7198,"MEAN_ANOMALY":272.3959,"EPHEMERIS_TYPE":0,"CLASSIFICATION_TYPE":"U","NORAD_CAT_ID":53022,"ELEMENT_SET_NO":999,"REV_AT_EPOCH":17905,"BSTAR":-6.054e-5,"MEAN_MOTION_DOT":-1.252e-5,"MEAN_MOTION_DDOT":0},{"OBJECT_NAME":"STARLINK-4284","OBJECT_ID":"2022-076AP","EPOCH":"2025-10-02T03:33:39.725280","MEAN_MOTION":15.08836253,"ECCENTRICITY":0.0001321,"INCLINATION":53.2167,"RA_OF_ASC_NODE":75.8279,"ARG_OF_PERICENTER":95.607,"MEAN_ANOMALY":264.5073,"EPHEMERIS_TYPE":0,"CLASSIFICATION_TYPE":"U","NORAD_CAT_ID":53023,"ELEMENT_SET_NO":999,"REV_AT_EPOCH":17905,"BSTAR":3.808e-5,"MEAN_MOTION_DOT":3.18e-6,"MEAN_MOTION_DDOT":0},{"OBJECT_NAME":"STARLINK-4289","OBJECT_ID":"2022-076AQ","EPOCH":"2025-10-02T03:38:57.647040","MEAN_MOTION":15.08834444,"ECCENTRICITY":0.0001316,"INCLINATION":53.2174,"RA_OF_ASC_NODE":75.8217,"ARG_OF_PERICENTER":91.9192,"MEAN_ANOMALY":268.1951,"EPHEMERIS_TYPE":0,"CLASSIFICATION_TYPE":"U","NORAD_CAT_ID":53024,"ELEMENT_SET_NO":999,"REV_AT_EPOCH":17905,"BSTAR":0.00013257,"MEAN_MOTION_DOT":1.822e-5,"MEAN_MOTION_DDOT":0},{"OBJECT_NAME":"STARLINK-4218","OBJECT_ID":"2022-076AR","EPOCH":"2025-10-02T03:28:21.737856","MEAN_MOTION":15.08837238,"ECCENTRICITY":0.00014,"INCLINATION":53.2171,"RA_OF_ASC_NODE":75.8554,"ARG_OF_PERICENTER":96.1462,"MEAN_ANOMALY":263.969,"EPHEMERIS_TYPE":0,"CLASSIFICATION_TYPE":"U","NORAD_CAT_ID":53025,"ELEMENT_SET_NO":999,"REV_AT_EPOCH":17905,"BSTAR":2.6812e-5,"MEAN_MOTION_DOT":1.39e-6,"MEAN_MOTION_DDOT":0},{"OBJECT_NAME":"STARLINK-4119","OBJECT_ID":"2022-076AS","EPOCH":"2025-10-02T03:35:01.207392","MEAN_MOTION":15.08835065,"ECCENTRICITY":0.0001307,"INCLINATION":53.2168,"RA_OF_ASC_NODE":75.7289,"ARG_OF_PERICENTER":96.2868,"MEAN_ANOMALY":263.8273,"EPHEMERIS_TYPE":0,"CLASSIFICATION_TYPE":"U","NORAD_CAT_ID":53026,"ELEMENT_SET_NO":999,"REV_AT_EPOCH":17905,"BSTAR":2.3806e-5,"MEAN_MOTION_DOT":9.1e-7,"MEAN_MOTION_DDOT":0},{"OBJECT_NAME":"STARLINK-4158","OBJECT_ID":"2022-076AT","EPOCH":"2025-10-01T17:40:09.163488","MEAN_MOTION":15.08836888,"ECCENTRICITY":0.00015216,"INCLINATION":53.2171,"RA_OF_ASC_NODE":77.69,"ARG_OF_PERICENTER":91.9916,"MEAN_ANOMALY":268.1251,"EPHEMERIS_TYPE":0,"CLASSIFICATION_TYPE":"U","NORAD_CAT_ID":53027,"ELEMENT_SET_NO":999,"REV_AT_EPOCH":17899,"BSTAR":-2.1797893e-5,"MEAN_MOTION_DOT":-6.35e-6,"MEAN_MOTION_DDOT":0},{"OBJECT_NAME":"STARLINK-4143","OBJECT_ID":"2022-076AV","EPOCH":"2025-10-01T17:20:16.767456","MEAN_MOTION":15.08835707,"ECCENTRICITY":0.00014353,"INCLINATION":53.2174,"RA_OF_ASC_NODE":67.753,"ARG_OF_PERICENTER":99.9696,"MEAN_ANOMALY":260.1458,"EPHEMERIS_TYPE":0,"CLASSIFICATION_TYPE":"U","NORAD_CAT_ID":53029,"ELEMENT_SET_NO":999,"REV_AT_EPOCH":17912,"BSTAR":2.306893e-6,"MEAN_MOTION_DOT":-2.51e-6,"MEAN_MOTION_DDOT":0}]
